start=new Date('2022-03-21T00:00:00.000Z').valueOf();
sats=[{"FILE":"3367488","ECCENTRICITY":"0.00013310","TLE_LINE2":"2 48442  53.0542 210.4371 0001331  69.8029 290.3103 15.06408113 48091","MEAN_ANOMALY":"290.3103","INCLINATION":"53.0542","OBJECT_NAME":"STARLINK-2644","DECAY_DATE":null,"CENTER_NAME":"EARTH","EPHEMERIS_TYPE":"0","OBJECT_ID":"2021-040Q","ELEMENT_SET_NO":"999","MEAN_MOTION":"15.06408113","NORAD_CAT_ID":"48442","MEAN_MOTION_DDOT":"0.0000000000000","BSTAR":"0.00006146900000","OBJECT_TYPE":"PAYLOAD","CLASSIFICATION_TYPE":"U","PERIAPSIS":"546.267","TLE_LINE1":"1 48442U 21040Q   22079.79511189  .00000634  00000-0  61469-4 0  9993","APOAPSIS":"548.110","ARG_OF_PERICENTER":"69.8029","COUNTRY_CODE":"US","RA_OF_ASC_NODE":"210.4371","MEAN_ELEMENT_THEORY":"SGP4","REF_FRAME":"TEME","REV_AT_EPOCH":"4809","SEMIMAJOR_AXIS":"6925.324","EPOCH":"2022-03-20T19:04:57.667296","MEAN_MOTION_DOT":"0.00000634","RCS_SIZE":"LARGE","PERIOD":"95.592","LAUNCH_DATE":"2021-05-09","GP_ID":"199268291","SITE":"AFETR","TIME_SYSTEM":"UTC"},{"OBJECT_NAME":"STARLINK-2663","DECAY_DATE":null,"MEAN_ANOMALY":"294.4039","INCLINATION":"53.0549","TLE_LINE2":"2 48443  53.0549 210.1608 0001428  65.7099 294.4039 15.06409836 48106","ECCENTRICITY":"0.00014280","FILE":"3367488","ELEMENT_SET_NO":"999","OBJECT_ID":"2021-040R","EPHEMERIS_TYPE":"0","CENTER_NAME":"EARTH","OBJECT_TYPE":"PAYLOAD","BSTAR":"0.00040177000000","MEAN_MOTION_DDOT":"0.0000000000000","NORAD_CAT_ID":"48443","MEAN_MOTION":"15.06409836","ARG_OF_PERICENTER":"65.7099","TLE_LINE1":"1 48443U 21040R   22079.85777028  .00005709  00000-0  40177-3 0  9997","PERIAPSIS":"546.194","APOAPSIS":"548.172","CLASSIFICATION_TYPE":"U","REV_AT_EPOCH":"4810","MEAN_ELEMENT_THEORY":"SGP4","RA_OF_ASC_NODE":"210.1608","REF_FRAME":"TEME","COUNTRY_CODE":"US","SEMIMAJOR_AXIS":"6925.318","PERIOD":"95.592","RCS_SIZE":"LARGE","EPOCH":"2022-03-20T20:35:11.352192","MEAN_MOTION_DOT":"0.00005709","TIME_SYSTEM":"UTC","SITE":"AFETR","GP_ID":"199267039","LAUNCH_DATE":"2021-05-09"},{"CLASSIFICATION_TYPE":"U","APOAPSIS":"548.070","PERIAPSIS":"546.286","TLE_LINE1":"1 48444U 21040S   22079.85407982  .00000264  00000-0  36610-4 0  9996","ARG_OF_PERICENTER":"65.8398","NORAD_CAT_ID":"48444","MEAN_MOTION":"15.06411655","MEAN_MOTION_DDOT":"0.0000000000000","BSTAR":"0.00003661000000","OBJECT_TYPE":"PAYLOAD","CENTER_NAME":"EARTH","EPHEMERIS_TYPE":"0","OBJECT_ID":"2021-040S","ELEMENT_SET_NO":"999","ECCENTRICITY":"0.00012880","FILE":"3367488","TLE_LINE2":"2 48444  53.0555 210.1846 0001288  65.8398 294.2726 15.06411655 48108","MEAN_ANOMALY":"294.2726","INCLINATION":"53.0555","DECAY_DATE":null,"OBJECT_NAME":"STARLINK-2645","LAUNCH_DATE":"2021-05-09","GP_ID":"199267289","TIME_SYSTEM":"UTC","SITE":"AFETR","MEAN_MOTION_DOT":"0.00000264","EPOCH":"2022-03-20T20:29:52.496448","RCS_SIZE":"LARGE","PERIOD":"95.591","SEMIMAJOR_AXIS":"6925.313","COUNTRY_CODE":"US","REF_FRAME":"TEME","MEAN_ELEMENT_THEORY":"SGP4","RA_OF_ASC_NODE":"210.1846","REV_AT_EPOCH":"4810"},{"TLE_LINE2":"2 48445  53.0546 210.5041 0001461  65.4126 294.7015 15.06404707 48092","FILE":"3367488","ECCENTRICITY":"0.00014610","OBJECT_NAME":"STARLINK-2634","DECAY_DATE":null,"MEAN_ANOMALY":"294.7015","INCLINATION":"53.0546","CENTER_NAME":"EARTH","ELEMENT_SET_NO":"999","EPHEMERIS_TYPE":"0","OBJECT_ID":"2021-040T","MEAN_MOTION_DDOT":"0.0000000000000","MEAN_MOTION":"15.06404707","NORAD_CAT_ID":"48445","OBJECT_TYPE":"PAYLOAD","BSTAR":"0.00011190000000","CLASSIFICATION_TYPE":"U","ARG_OF_PERICENTER":"65.4126","PERIAPSIS":"546.187","TLE_LINE1":"1 48445U 21040T   22079.78404613  .00001386  00000-0  11190-3 0  9998","APOAPSIS":"548.211","COUNTRY_CODE":"US","REV_AT_EPOCH":"4809","MEAN_ELEMENT_THEORY":"SGP4","RA_OF_ASC_NODE":"210.5041","REF_FRAME":"TEME","SEMIMAJOR_AXIS":"6925.334","RCS_SIZE":"LARGE","EPOCH":"2022-03-20T18:49:01.585632","MEAN_MOTION_DOT":"0.00001386","PERIOD":"95.592","LAUNCH_DATE":"2021-05-09","SITE":"AFETR","TIME_SYSTEM":"UTC","GP_ID":"199268041"},{"INCLINATION":"53.0548","MEAN_ANOMALY":"296.2015","DECAY_DATE":null,"OBJECT_NAME":"STARLINK-2247","ECCENTRICITY":"0.00013630","FILE":"3367488","TLE_LINE2":"2 48446  53.0548 210.2147 0001363  63.9114 296.2015 15.06410844 48108","OBJECT_ID":"2021-040U","EPHEMERIS_TYPE":"0","ELEMENT_SET_NO":"999","CENTER_NAME":"EARTH","BSTAR":"0.00014316000000","OBJECT_TYPE":"PAYLOAD","MEAN_MOTION":"15.06410844","NORAD_CAT_ID":"48446","MEAN_MOTION_DDOT":"0.0000000000000","APOAPSIS":"548.124","TLE_LINE1":"1 48446U 21040U   22079.84671103  .00001852  00000-0  14316-3 0  9997","PERIAPSIS":"546.236","ARG_OF_PERICENTER":"63.9114","CLASSIFICATION_TYPE":"U","REF_FRAME":"TEME","MEAN_ELEMENT_THEORY":"SGP4","RA_OF_ASC_NODE":"210.2147","REV_AT_EPOCH":"4810","COUNTRY_CODE":"US","SEMIMAJOR_AXIS":"6925.315","PERIOD":"95.591","EPOCH":"2022-03-20T20:19:15.832992","MEAN_MOTION_DOT":"0.00001852","RCS_SIZE":"LARGE","GP_ID":"199267792","SITE":"AFETR","TIME_SYSTEM":"UTC","LAUNCH_DATE":"2021-05-09"},{"BSTAR":"0.00001179200000","OBJECT_TYPE":"PAYLOAD","MEAN_MOTION":"15.06397667","NORAD_CAT_ID":"48447","MEAN_MOTION_DDOT":"0.0000000000000","APOAPSIS":"548.158","PERIAPSIS":"546.284","TLE_LINE1":"1 48447U 21040V   22079.64399418 -.00000106  00000-0  11792-4 0  9990","ARG_OF_PERICENTER":"71.0034","CLASSIFICATION_TYPE":"U","MEAN_ANOMALY":"289.1102","INCLINATION":"53.0557","DECAY_DATE":null,"OBJECT_NAME":"STARLINK-2269","FILE":"3367488","ECCENTRICITY":"0.00013530","TLE_LINE2":"2 48447  53.0557 211.1276 0001353  71.0034 289.1102 15.06397667 48073","EPHEMERIS_TYPE":"0","OBJECT_ID":"2021-040V","ELEMENT_SET_NO":"999","CENTER_NAME":"EARTH","PERIOD":"95.592","EPOCH":"2022-03-20T15:27:21.097152","MEAN_MOTION_DOT":"-0.00000106","RCS_SIZE":"LARGE","GP_ID":"199266540","SITE":"AFETR","TIME_SYSTEM":"UTC","LAUNCH_DATE":"2021-05-09","REF_FRAME":"TEME","RA_OF_ASC_NODE":"211.1276","MEAN_ELEMENT_THEORY":"SGP4","REV_AT_EPOCH":"4807","COUNTRY_CODE":"US","SEMIMAJOR_AXIS":"6925.356"},{"SEMIMAJOR_AXIS":"6925.293","COUNTRY_CODE":"US","RA_OF_ASC_NODE":"211.0187","MEAN_ELEMENT_THEORY":"SGP4","REF_FRAME":"TEME","REV_AT_EPOCH":"4807","LAUNCH_DATE":"2021-05-09","GP_ID":"199266790","SITE":"AFETR","TIME_SYSTEM":"UTC","MEAN_MOTION_DOT":"0.00004658","EPOCH":"2022-03-20T16:03:08.543232","RCS_SIZE":"LARGE","PERIOD":"95.591","CENTER_NAME":"EARTH","OBJECT_ID":"2021-040W","EPHEMERIS_TYPE":"0","ELEMENT_SET_NO":"999","FILE":"3367488","ECCENTRICITY":"0.00015830","TLE_LINE2":"2 48448  53.0544 211.0187 0001583  59.5989 300.5157 15.06418265 48071","INCLINATION":"53.0544","MEAN_ANOMALY":"300.5157","OBJECT_NAME":"STARLINK-2632","DECAY_DATE":null,"CLASSIFICATION_TYPE":"U","TLE_LINE1":"1 48448U 21040W   22079.66884888  .00004658  00000-0  33121-3 0  9997","PERIAPSIS":"546.061","APOAPSIS":"548.254","ARG_OF_PERICENTER":"59.5989","MEAN_MOTION":"15.06418265","NORAD_CAT_ID":"48448","MEAN_MOTION_DDOT":"0.0000000000000","BSTAR":"0.00033121000000","OBJECT_TYPE":"PAYLOAD"},{"GP_ID":"199267542","SITE":"AFETR","TIME_SYSTEM":"UTC","LAUNCH_DATE":"2021-05-09","PERIOD":"95.591","MEAN_MOTION_DOT":"0.00000134","EPOCH":"2022-03-20T18:33:06.442272","RCS_SIZE":"LARGE","SEMIMAJOR_AXIS":"6925.307","RA_OF_ASC_NODE":"210.5497","MEAN_ELEMENT_THEORY":"SGP4","REF_FRAME":"TEME","REV_AT_EPOCH":"4809","COUNTRY_CODE":"US","TLE_LINE1":"1 48449U 21040X   22079.77299123  .00000134  00000-0  27874-4 0  9996","PERIAPSIS":"546.151","APOAPSIS":"548.194","ARG_OF_PERICENTER":"70.8875","CLASSIFICATION_TYPE":"U","BSTAR":"0.00002787400000","OBJECT_TYPE":"PAYLOAD","NORAD_CAT_ID":"48449","MEAN_MOTION":"15.06413518","MEAN_MOTION_DDOT":"0.0000000000000","EPHEMERIS_TYPE":"0","OBJECT_ID":"2021-040X","ELEMENT_SET_NO":"999","CENTER_NAME":"EARTH","MEAN_ANOMALY":"289.2274","INCLINATION":"53.0542","OBJECT_NAME":"STARLINK-2655","DECAY_DATE":null,"FILE":"3367488","ECCENTRICITY":"0.00014750","TLE_LINE2":"2 48449  53.0542 210.5497 0001475  70.8875 289.2274 15.06413518 48099"},{"BSTAR":"0.00030116000000","OBJECT_TYPE":"PAYLOAD","MEAN_MOTION":"15.06420585","NORAD_CAT_ID":"48450","MEAN_MOTION_DDOT":"0.0000000000000","TLE_LINE1":"1 48450U 21040Y   22079.83566348  .00004210  00000-0  30116-3 0  9992","PERIAPSIS":"546.089","APOAPSIS":"548.212","ARG_OF_PERICENTER":"60.4254","CLASSIFICATION_TYPE":"U","MEAN_ANOMALY":"299.6888","INCLINATION":"53.0550","OBJECT_NAME":"STARLINK-2660","DECAY_DATE":null,"ECCENTRICITY":"0.00015330","FILE":"3367488","TLE_LINE2":"2 48450  53.0550 210.2651 0001533  60.4254 299.6888 15.06420585 48100","EPHEMERIS_TYPE":"0","OBJECT_ID":"2021-040Y","ELEMENT_SET_NO":"999","CENTER_NAME":"EARTH","PERIOD":"95.591","EPOCH":"2022-03-20T20:03:21.324672","MEAN_MOTION_DOT":"0.00004210","RCS_SIZE":"LARGE","GP_ID":"199268292","SITE":"AFETR","TIME_SYSTEM":"UTC","LAUNCH_DATE":"2021-05-09","MEAN_ELEMENT_THEORY":"SGP4","RA_OF_ASC_NODE":"210.2651","REF_FRAME":"TEME","REV_AT_EPOCH":"4810","COUNTRY_CODE":"US","SEMIMAJOR_AXIS":"6925.285"},{"TLE_LINE1":"1 48451U 21040Z   22079.63292656  .00000399  00000-0  45664-4 0  9998","PERIAPSIS":"546.208","APOAPSIS":"548.168","ARG_OF_PERICENTER":"82.9639","CLASSIFICATION_TYPE":"U","BSTAR":"0.00004566400000","OBJECT_TYPE":"PAYLOAD","MEAN_MOTION":"15.06408424","NORAD_CAT_ID":"48451","MEAN_MOTION_DDOT":"0.0000000000000","OBJECT_ID":"2021-040Z","EPHEMERIS_TYPE":"0","ELEMENT_SET_NO":"999","CENTER_NAME":"EARTH","INCLINATION":"53.0540","MEAN_ANOMALY":"277.1511","OBJECT_NAME":"STARLINK-2652","DECAY_DATE":null,"ECCENTRICITY":"0.00014150","FILE":"3367488","TLE_LINE2":"2 48451  53.0540 211.1783 0001415  82.9639 277.1511 15.06408424 48079","GP_ID":"199267040","SITE":"AFETR","TIME_SYSTEM":"UTC","LAUNCH_DATE":"2021-05-09","PERIOD":"95.592","EPOCH":"2022-03-20T15:11:24.854784","MEAN_MOTION_DOT":"0.00000399","RCS_SIZE":"LARGE","SEMIMAJOR_AXIS":"6925.323","MEAN_ELEMENT_THEORY":"SGP4","RA_OF_ASC_NODE":"211.1783","REF_FRAME":"TEME","REV_AT_EPOCH":"4807","COUNTRY_CODE":"US"}];
